SL-16 R/B               
1 19120U 88039B   16263.21742109  .00000052  00000-0  47556-4 0  9993
2 19120  71.0155 177.4600 0023988 246.1522 113.7088 14.19152809467949
COSMOS 1953             
1 19210U 88050A   16263.18190627  .00001056  00000-0  72380-4 0  9992
2 19210  82.5164 296.0704 0014934 103.4987 256.7905 15.04935089537072
SL-8 R/B                
1 19257U 88053B   16263.46947789  .00000054  00000-0  26816-4 0  9996
2 19257  74.0512 354.2149 0021407 310.3890 125.8311 14.37328941479879
COSMOS 1975             
1 19573U 88093A   16263.49393712  .00001033  00000-0  72843-4 0  9994
2 19573  82.5182 247.3039 0015706 135.2322 225.0175 15.03837823519128
SL-14 R/B               
1 19574U 88093B   16263.47415564  .00000131  00000-0  13097-4 0  9997
2 19574  82.5328  38.1511 0020203 290.5512 132.9577 14.83174475509323
SL-16 R/B               
1 19650U 88102B   16263.32988607 -.00000225  00000-0 -90256-4 0  9998
2 19650  70.9989 224.6258 0016369 240.3135 119.6359 14.15747229437658
INTERCOSMOS 24          
1 20261U 89080A   16263.30816986  .00000417  00000-0  12018-3 0  9992
2 20261  82.5981 185.4276 1205198   1.4391 358.9691 12.55815545231966
SL-14 R/B               
1 20262U 89080C   16263.47707500  .00000069  00000-0  12923-4 0  9991
2 20262  82.5922 229.4441 1237829 153.6866 213.2932 12.48822851227920
DELTA 1 R/B             
1 20323U 89089B   16262.92613392  .00000031  00000-0  17085-4 0  9995
2 20323  97.0724 246.1776 0070937 212.9160 146.7610 14.48145162394930
DELTA 2 R/B(1)          
1 20453U 90008B   16262.81125532  .00001701  00000-0  10232-3 0  9995
2 20453  35.6255  23.5789 0292655  72.6063 290.6429 14.82083053407905
COSMOS 2058             
1 20465U 90010A   16263.11598813  .00000473  00000-0  38391-4 0  9993
2 20465  82.4910 148.4531 0016877 124.0422 236.2406 14.97294238444771
SL-14 R/B               
1 20466U 90010B   16262.95197494  .00000113  00000-0  11435-4 0  9996
2 20466  82.5003 266.3742 0021445 145.8431 214.4168 14.81239001416286
SL-14 R/B               
1 20511U 90018B   16262.91317314  .00000125  00000-0  13474-4 0  9994
2 20511  82.5244 206.7183 0015977 284.2329 134.0771 14.79900371410843
HST                     
1 20580U 90037B   16263.20772706  .00000884  00000-0  44040-4 0  9999
2 20580  28.4707 357.7733 0002912 134.8879  64.3563 15.08499676249326
SL-16 R/B               
1 20625U 90046B   16262.84269067  .00000207  00000-0  13232-3 0  9996
2 20625  71.0010 358.6280 0013836 167.8493 329.4297 14.14601335359468
COSMOS 2084             
1 20663U 90055A   16262.89205232  .00000313  00000-0  44630-4 0  9992
2 20663  62.7926  53.4409 0131638  63.3220 298.1281 14.91335219419333
SL-6 R/B(2)             
1 20666U 90055D   16262.75093609  .00000187  00000-0  33500-4 0  9996
2 20666  62.7849 333.4575 0136086  82.5667 279.0866 14.91700462420688
SL-8 R/B                
1 20775U 90078B   16262.52601626  .00002357  00000-0  11528-3 0  9997
2 20775  82.9263 270.6112 0597465  98.1923 268.7442 14.28971510309946
SL-8 R/B                
1 21088U 91006B   16263.48237068  .00000092  00000-0  77233-4 0  9998
2 21088  82.9425 221.4554 0022708   2.0836 107.4989 13.77037949288345
OKEAN-3                 
1 21397U 91039A   16263.45267361  .00000473  00000-0  43616-4 0  9994
2 21397  82.5228  35.5372 0019400  65.0673 295.2560 14.92299817369400
COSMOS 2151             
1 21422U 91042A   16262.80860935  .00000290  00000-0  26240-4 0  9992
2 21422  82.5015 144.6796 0015622 117.5002 242.7807 14.91692677346963
SL-14 R/B               
1 21423U 91042B   16263.43019548  .00000139  00000-0  15386-4 0  9990
2 21423  82.4946 214.4194 0019037  59.9366 300.3731 14.79652817362547
ERS-1                   
1 21574U 91050A   16262.88431956  .00000111  00000-0  51077-4 0  9992
2 21574  98.4225 208.8926 0034063  46.7927 313.6096 14.37519149318618
ARIANE 40 R/B           
1 21610U 91050F   16262.78718875  .00000068  00000-0  35403-4 0  9996
2 21610  98.6465 311.1001 0003888  50.0785  64.5594 14.40758964320757
INTERCOSMOS 25          
1 21819U 91086A   16263.06698476  .00000143  00000-0  28224-4 0  9999
2 21819  82.5630 226.0337 1523556 303.7826  42.7092 12.04387820 79641
SL-14 R/B               
1 21820U 91086B   16262.94605126  .00000194  00000-0  31017-4 0  9997
2 21820  82.5561 278.4591 1578499 121.5116 254.9895 11.93198815 74434
SL-8 R/B                
1 21876U 92008B   16262.75082949  .00000080  00000-0  66127-4 0  9998
2 21876  82.9276 318.9442 0036106  72.9464  66.2953 13.75587028234061
SL-8 R/B                
1 21938U 92020B   16262.97427133 -.00000001  00000-0 -16433-4 0  9993
2 21938  82.9321 201.8061 0027968 227.2771 200.2334 13.75241412225719
SL-16 R/B               
1 22220U 92076B   16263.20895273  .00000178  00000-0  11342-3 0  9996
2 22220  70.9984 269.6384 0014344 318.2200 112.3557 14.16403892232400
SL-16 R/B               
1 22285U 92093B   16262.84757337  .00000162  00000-0  10833-3 0  9990
2 22285  71.0206  61.4781 0004828 206.5786 153.5090 14.14997117224151
COSMOS 2228             
1 22286U 92094A   16262.50361525  .00000334  00000-0  34030-4 0  9992
2 22286  82.5185 270.2169 0019267 306.1106  53.8326 14.87517198282101
SL-16 R/B               
1 22566U 93016B   16263.44363090  .00000365  00000-0  21305-3 0  9995
2 22566  71.0054 275.2275 0010776 197.2848 162.7909 14.14930736212973
COSMOS 2242             
1 22626U 93024A   16262.58984703  .00000316  00000-0  32051-4 0  9992
2 22626  82.5208 297.8346 0017732 305.0337  54.9215 14.87520467265772
SL-16 R/B               
1 22803U 93059B   16262.89255839  .00000044  00000-0  45896-4 0  9991
2 22803  70.9884 101.1096 0015100  77.1390 283.1419 14.16750197189608
ARIANE 40 R/B           
1 22830U 93061H   16262.92783207 -.00000040  00000-0  22889-5 0  9998
2 22830  98.8895 266.0478 0011014   5.9757  51.2433 14.31412246199181
COSMOS 2278             
1 23087U 94023A   16263.27920440 -.00000191  00000-0 -76026-4 0  9992
2 23087  71.0542 205.1756 0011713 270.3327  89.6453 14.13730029156203
SL-16 R/B               
1 23088U 94023B   16263.52503743  .00000291  00000-0  17624-3 0  9991
2 23088  70.9993 130.1352 0002968 189.1867 170.9201 14.14646928157266
SL-16 R/B               
1 23343U 94074B   16262.96247338  .00000019  00000-0  10396-4 0  9991
2 23343  98.1874 290.8269 0006126 213.2356 206.5931 14.76671538176599
SL-16 R/B               
1 23405U 94077B   16262.92603106  .00000235  00000-0  14545-3 0  9997
2 23405  70.9821  65.7181 0002916 329.6587  30.4367 14.15184212126886
ERS-2                   
1 23560U 95021A   16262.90948974  .00002397  00000-0  11683-3 0  9993
2 23560  98.5213 213.5512 0004805 130.2228 229.9424 15.19531851134144
ARIANE 40+ R/B          
1 23561U 95021B   16262.93294728  .00000051  00000-0  32348-4 0  9995
2 23561  98.7782 252.0940 0006821 351.4618  60.1310 14.37763905122053
SL-16 R/B               
1 23705U 95058B   16263.36320952 -.00000321  00000-0 -14068-3 0  9992
2 23705  71.0208 237.2307 0013283 340.1007  19.9595 14.15088329 78872
SL-16 R/B               
1 24298U 96051B   16263.12925905  .00000073  00000-0  65617-4 0  9996
2 24298  70.8378 273.3765 0019153 229.1805 130.7655 14.12432476 33545
ORBVIEW 2 (SEASTAR)     
1 24883U 97037A   16262.92219777  .00000083  00000-0  45878-4 0  9999
2 24883  98.5281   9.4295 0002557 162.8255 197.3017 14.33340168 12797
SL-16 R/B               
1 25400U 98043G   16262.90818243  .00000001  00000-0  18118-4 0  9991
2 25400  98.4483 214.3612 0010198  16.3771 343.7737 14.25390614946202
SL-16 R/B               
1 25407U 98045B   16263.40225635 -.00000200  00000-0 -77248-4 0  9995
2 25407  71.0098 250.4706 0010235 262.4584  97.5376 14.15753449937853
ISS (ZARYA)             
1 25544U 98067A   16263.47535880  .00003409  00000-0  59238-4 0  9995
2 25544  51.6458 307.6464 0005985 339.1840 224.6936 15.53880948 19650
SL-8 R/B                
1 25723U 99022C   16262.91312341  .00007274  00000-0  13490-3 0  9992
2 25723  48.4176 169.5724 0011380 171.1778 236.7598 15.49899532964071
CZ-4B R/B               
1 25732U 99025C   16263.52539825 -.00000036  00000-0  47836-5 0  9994
2 25732  98.9797 256.1695 0038034 140.4892  18.5001 14.17616169898282
OKEAN-O                 
1 25860U 99039A   16263.46397013  .00000139  00000-0  27532-4 0  9998
2 25860  98.1546 239.1541 0000891  75.5569 284.5739 14.76398479923882
SL-16 R/B               
1 25861U 99039B   16263.45091562  .00000074  00000-0  17468-4 0  9993
2 25861  98.0650 227.5891 0014573 230.6333 239.0429 14.78348050925775
TERRA                   
1 25994U 99068A   16263.23500574 -.00002045  00000-0 -44408-3 0  9991
2 25994  98.2051 336.1819 0001091  92.4813 267.6530 14.57101875891214
SL-14 R/B               
1 26874U 01032B   16263.22995223  .00032136  00000-0  13046-3 0  9997
2 26874  82.4611 178.5172 0005779 169.4928 190.6464 15.86037155850520
ENVISAT                 
1 27386U 02009A   16263.41503846  .00000004  00000-0  15238-4 0  9993
2 27386  98.2744 313.4116 0001196  80.7505 279.3819 14.37875724762162
IDEFIX & ARIANE 42P R/B 
1 27422U 02021B   16263.51246220 -.00000025  00000-0  59889-5 0  9994
2 27422  98.2299 272.8212 0011531 324.2457  35.7953 14.29249039748015
AQUA                    
1 27424U 02022A   16262.92818824  .00000164  00000-0  46408-4 0  9991
2 27424  98.2050 202.0397 0000596 104.8931 347.4477 14.57119388764723
CZ-4B R/B               
1 27432U 02024C   16262.95106568 -.00000005  00000-0  20417-4 0  9997
2 27432  98.9479 229.5446 0051546  80.2969 337.9538 14.14024775740467
MIDORI II (ADEOS-II)    
1 27597U 02056A   16262.95856602  .00000063  00000-0  42545-4 0  9994
2 27597  98.3320 238.6182 0002142  67.4703 292.6705 14.27234063716730
H-2A R/B                
1 27601U 02056E   16263.24728336  .00000060  00000-0  37120-4 0  9995
2 27601  98.4112 333.9206 0072488  19.4467  17.0455 14.31734288719043
